[{"OBJECT_NAME":"STARLINK-5218","OBJECT_ID":"2023-021J","EPOCH":"2026-03-09T17:09:35.815968","MEAN_MOTION":14.98329838,"ECCENTRICITY":0.00032887,"INCLINATION":70.0001,"RA_OF_ASC_NODE":204.3244,"ARG_OF_PERICENTER":269.5064,"MEAN_ANOMALY":90.5718,"EPHEMERIS_TYPE":0,"CLASSIFICATION_TYPE":"U","NORAD_CAT_ID":55636,"ELEMENT_SET_NO":999,"REV_AT_EPOCH":16830,"BSTAR":4.3023057e-5,"MEAN_MOTION_DOT":4.2e-6,"MEAN_MOTION_DDOT":0},{"OBJECT_NAME":"CZ-6A DEB","OBJECT_ID":"2024-140ZM","EPOCH":"2026-03-09T08:08:19.885920","MEAN_MOTION":14.97554426,"ECCENTRICITY":0.01813088,"INCLINATION":90.2734,"RA_OF_ASC_NODE":12.4689,"ARG_OF_PERICENTER":116.477,"MEAN_ANOMALY":245.5188,"EPHEMERIS_TYPE":0,"CLASSIFICATION_TYPE":"U","NORAD_CAT_ID":61455,"ELEMENT_SET_NO":999,"REV_AT_EPOCH":8308,"BSTAR":0.00078895456,"MEAN_MOTION_DOT":0.00012969,"MEAN_MOTION_DDOT":0}]
